[
    {
        "Altitude(m)": 581745.5569444455,
        "Argument of Periapsis(deg)": -0.03013754771062987,
        "Eccentricity": 0.0,
        "Inclination(deg)": 97.0,
        "Latitude(deg)": -47.304731992989055,
        "Longitude(deg)": -170.7425891612884,
        "Mean Anomaly(deg)": 227.5361910255833,
        "RAAN(deg)": 120.00792940482468,
        "Satellite Name": "Starlink Shell 3 1845",
        "Satellite Number": 1845,
        "Semi-Major Axis(m)": 6938478.169268562,
        "Time(s)": 760
    },
    {
        "Altitude(m)": 581994.1306828659,
        "Argument of Periapsis(deg)": -0.030534094391032898,
        "Eccentricity": 0.0,
        "Inclination(deg)": 97.0,
        "Latitude(deg)": -47.9182403094696,
        "Longitude(deg)": -170.95061558421665,
        "Mean Anomaly(deg)": 228.1616672232884,
        "RAAN(deg)": 120.00803373909866,
        "Satellite Name": "Starlink Shell 3 1845",
        "Satellite Number": 1845,
        "Semi-Major Axis(m)": 6938478.169268562,
        "Time(s)": 770
    },
    {
        "Altitude(m)": 582241.5426839321,
        "Argument of Periapsis(deg)": -0.030930641071435925,
        "Eccentricity": 0.0,
        "Inclination(deg)": 97.0,
        "Latitude(deg)": -48.53140975861704,
        "Longitude(deg)": -171.16260795313784,
        "Mean Anomaly(deg)": 228.7871434209934,
        "RAAN(deg)": 120.00813807337268,
        "Satellite Name": "Starlink Shell 3 1845",
        "Satellite Number": 1845,
        "Semi-Major Axis(m)": 6938478.169268562,
        "Time(s)": 780
    },
    {
        "Altitude(m)": 582487.6948929996,
        "Argument of Periapsis(deg)": -0.031327187751838945,
        "Eccentricity": 0.0,
        "Inclination(deg)": 97.0,
        "Latitude(deg)": -49.144229382526945,
        "Longitude(deg)": -171.37874826577334,
        "Mean Anomaly(deg)": 229.41261961869844,
        "RAAN(deg)": 120.0082424076467,
        "Satellite Name": "Starlink Shell 3 1845",
        "Satellite Number": 1845,
        "Semi-Major Axis(m)": 6938478.169268562,
        "Time(s)": 790
    },
    {
        "Altitude(m)": 582732.4896567784,
        "Argument of Periapsis(deg)": -0.031723734432241975,
        "Eccentricity": 0.0,
        "Inclination(deg)": 97.0,
        "Latitude(deg)": -49.7566875895442,
        "Longitude(deg)": -171.59922972621155,
        "Mean Anomaly(deg)": 230.03809581640348,
        "RAAN(deg)": 120.0083467419207,
        "Satellite Name": "Starlink Shell 3 1845",
        "Satellite Number": 1845,
        "Semi-Major Axis(m)": 6938478.169268562,
        "Time(s)": 800
    },
    {
        "Altitude(m)": 582975.8297667744,
        "Argument of Periapsis(deg)": -0.032120281112645,
        "Eccentricity": 0.0,
        "Inclination(deg)": 97.0,
        "Latitude(deg)": -50.36877210274834,
        "Longitude(deg)": -171.82425704154647,
        "Mean Anomaly(deg)": 230.66357201410852,
        "RAAN(deg)": 120.00845107619472,
        "Satellite Name": "Starlink Shell 3 1845",
        "Satellite Number": 1845,
        "Semi-Major Axis(m)": 6938478.169268562,
        "Time(s)": 810
    },
    {
        "Altitude(m)": 583217.618502476,
        "Argument of Periapsis(deg)": -0.03251682779304802,
        "Eccentricity": 0.0,
        "Inclination(deg)": 97.0,
        "Latitude(deg)": -50.980469903725165,
        "Longitude(deg)": -172.0540467903164,
        "Mean Anomaly(deg)": 231.28904821181357,
        "RAAN(deg)": 120.00855541046872,
        "Satellite Name": "Starlink Shell 3 1845",
        "Satellite Number": 1845,
        "Semi-Major Axis(m)": 6938478.169268562,
        "Time(s)": 820
    },
    {
        "Altitude(m)": 583457.7596742597,
        "Argument of Periapsis(deg)": -0.032913374473451044,
        "Eccentricity": 0.0,
        "Inclination(deg)": 97.0,
        "Latitude(deg)": -51.5917671711196,
        "Longitude(deg)": -172.2888293831426,
        "Mean Anomaly(deg)": 231.91452440951863,
        "RAAN(deg)": 120.00865974474274,
        "Satellite Name": "Starlink Shell 3 1845",
        "Satellite Number": 1845,
        "Semi-Major Axis(m)": 6938478.169268562,
        "Time(s)": 830
    },
    {
        "Altitude(m)": 583696.1576660008,
        "Argument of Periapsis(deg)": -0.03330992115385407,
        "Eccentricity": 0.0,
        "Inclination(deg)": 97.0,
        "Latitude(deg)": -52.20264921340511,
        "Longitude(deg)": -172.5288495982504,
        "Mean Anomaly(deg)": 232.54000060722367,
        "RAAN(deg)": 120.00876407901674,
        "Satellite Name": "Starlink Shell 3 1845",
        "Satellite Number": 1845,
        "Semi-Major Axis(m)": 6938478.169268562,
        "Time(s)": 840
    },
    {
        "Altitude(m)": 583932.717477417,
        "Argument of Periapsis(deg)": -0.0337064678342571,
        "Eccentricity": 0.0,
        "Inclination(deg)": 97.0,
        "Latitude(deg)": -52.81310039523235,
        "Longitude(deg)": -172.7743672141976,
        "Mean Anomaly(deg)": 233.16547680492872,
        "RAAN(deg)": 120.00886841329077,
        "Satellite Name": "Starlink Shell 3 1845",
        "Satellite Number": 1845,
        "Semi-Major Axis(m)": 6938478.169268562,
        "Time(s)": 850
    },
    {
        "Altitude(m)": 584167.3447660309,
        "Argument of Periapsis(deg)": -0.03410301451466012,
        "Eccentricity": 0.0,
        "Inclination(deg)": 97.0,
        "Latitude(deg)": -53.42310405663131,
        "Longitude(deg)": -173.0256594313911,
        "Mean Anomaly(deg)": 233.79095300263376,
        "RAAN(deg)": 120.00897274756477,
        "Satellite Name": "Starlink Shell 3 1845",
        "Satellite Number": 1845,
        "Semi-Major Axis(m)": 6938478.169268562,
        "Time(s)": 860
    },
    {
        "Altitude(m)": 584399.9458888341,
        "Argument of Periapsis(deg)": -0.034499561195063144,
        "Eccentricity": 0.0,
        "Inclination(deg)": 97.0,
        "Latitude(deg)": -54.0326424242658,
        "Longitude(deg)": -173.2830208918981,
        "Mean Anomaly(deg)": 234.4164292003388,
        "RAAN(deg)": 120.00907708183878,
        "Satellite Name": "Starlink Shell 3 1845",
        "Satellite Number": 1845,
        "Semi-Major Axis(m)": 6938478.169268562,
        "Time(s)": 870
    },
    {
        "Altitude(m)": 584630.4279435705,
        "Argument of Periapsis(deg)": -0.03489610787546617,
        "Eccentricity": 0.0,
        "Inclination(deg)": 97.0,
        "Latitude(deg)": -54.64169651381051,
        "Longitude(deg)": -173.54676635389984,
        "Mean Anomaly(deg)": 235.04190539804384,
        "RAAN(deg)": 120.00918141611278,
        "Satellite Name": "Starlink Shell 3 1845",
        "Satellite Number": 1845,
        "Semi-Major Axis(m)": 6938478.169268562,
        "Time(s)": 880
    },
    {
        "Altitude(m)": 584858.698809645,
        "Argument of Periapsis(deg)": -0.0352926545558692,
        "Eccentricity": 0.0,
        "Inclination(deg)": 97.0,
        "Latitude(deg)": -55.25024602241963,
        "Longitude(deg)": -173.81723183351292,
        "Mean Anomaly(deg)": 235.6673815957489,
        "RAAN(deg)": 120.00928575038678,
        "Satellite Name": "Starlink Shell 3 1845",
        "Satellite Number": 1845,
        "Semi-Major Axis(m)": 6938478.169268562,
        "Time(s)": 890
    },
    {
        "Altitude(m)": 585084.6671886395,
        "Argument of Periapsis(deg)": -0.035689201236272214,
        "Eccentricity": 0.0,
        "Inclination(deg)": 97.0,
        "Latitude(deg)": -55.85826921010327,
        "Longitude(deg)": -174.09477591206243,
        "Mean Anomaly(deg)": 236.29285779345395,
        "RAAN(deg)": 120.00939008466078,
        "Satellite Name": "Starlink Shell 3 1845",
        "Satellite Number": 1845,
        "Semi-Major Axis(m)": 6938478.169268562,
        "Time(s)": 900
    },
    {
        "Altitude(m)": 585308.2426444207,
        "Argument of Periapsis(deg)": -0.036085747916675244,
        "Eccentricity": 0.0,
        "Inclination(deg)": 97.0,
        "Latitude(deg)": -56.46574276866594,
        "Longitude(deg)": -174.37978274103685,
        "Mean Anomaly(deg)": 236.918333991159,
        "RAAN(deg)": 120.0094944189348,
        "Satellite Name": "Starlink Shell 3 1845",
        "Satellite Number": 1845,
        "Semi-Major Axis(m)": 6938478.169268562,
        "Time(s)": 910
    },
    {
        "Altitude(m)": 585529.3356428011,
        "Argument of Periapsis(deg)": -0.03648229459707827,
        "Eccentricity": 0.0,
        "Inclination(deg)": 97.0,
        "Latitude(deg)": -57.072641676686835,
        "Longitude(deg)": -174.67266374090522,
        "Mean Anomaly(deg)": 237.54381018886403,
        "RAAN(deg)": 120.0095987532088,
        "Satellite Name": "Starlink Shell 3 1845",
        "Satellite Number": 1845,
        "Semi-Major Axis(m)": 6938478.169268562,
        "Time(s)": 920
    },
    {
        "Altitude(m)": 585747.8575907877,
        "Argument of Periapsis(deg)": -0.0368788412774813,
        "Eccentricity": 0.0,
        "Inclination(deg)": 97.0,
        "Latitude(deg)": -57.67893903879135,
        "Longitude(deg)": -174.97385953154927,
        "Mean Anomaly(deg)": 238.16928638656907,
        "RAAN(deg)": 120.00970308748282,
        "Satellite Name": "Starlink Shell 3 1845",
        "Satellite Number": 1845,
        "Semi-Major Axis(m)": 6938478.169268562,
        "Time(s)": 930
    },
    {
        "Altitude(m)": 585963.7208753446,
        "Argument of Periapsis(deg)": -0.037275387957884314,
        "Eccentricity": 0.0,
        "Inclination(deg)": 97.0,
        "Latitude(deg)": -58.28460590722129,
        "Longitude(deg)": -175.28384363545385,
        "Mean Anomaly(deg)": 238.79476258427414,
        "RAAN(deg)": 120.00980742175683,
        "Satellite Name": "Starlink Shell 3 1845",
        "Satellite Number": 1845,
        "Semi-Major Axis(m)": 6938478.169268562,
        "Time(s)": 940
    }
]